NORAD_CAT_ID,OBJECT_NAME,OBJECT_TYPE,EPOCH,MEAN_MOTION,ECCENTRICITY,INCLINATION,RA_OF_ASC_NODE,ARG_OF_PERICENTER,MEAN_ANOMALY,BSTAR,MEAN_MOTION_DOT,MEAN_MOTION_DDOT,TLE_LINE0,TLE_LINE1,TLE_LINE2,SEMIMAJOR_AXIS,PERIOD,APOGEE,PERIGEE,DECAYED
52302.0,STARLINK-3564,PAYLOAD,2023-10-05 19:39:25,15.08841027,0.0001522,53.2154,105.9503,89.1985,270.9182,6.8125e-05,7.96e-06,0.0,0 STARLINK-3564,1 52302U 22041AT  23278.81904638  .00000796  00000-0  68125-4 0  9990,2 52302  53.2154 105.9503 0001522  89.1985 270.9182 15.08841027 82114,6917.877,95.437,540.795,538.689,0.0
52302.0,STARLINK-3564,PAYLOAD,2023-10-06 13:08:40,15.08836463,0.0001429,53.215,102.6778,90.4472,269.6683,-4.2979e-05,-9.72e-06,0.0,0 STARLINK-3564,1 52302U 22041AT  23279.54769070 -.00000972  00000-0 -42979-4 0  9997,2 52302  53.2150 102.6778 0001429  90.4472 269.6683 15.08836463 81017,6917.891,95.438,540.745,538.768,0.0
52302.0,STARLINK-3564,PAYLOAD,2023-10-06 19:30:12,15.08841109,0.0001319,53.215,101.4876,87.5783,272.536,1.4482e-05,-5.7e-07,0.0,0 STARLINK-3564,1 52302U 22041AT  23279.81264984 -.00000057  00000-0  14482-4 0  9992,2 52302  53.2150 101.4876 0001319  87.5783 272.5360 15.08841109 82269,6917.877,95.437,540.654,538.83,0.0
52302.0,STARLINK-3564,PAYLOAD,2023-10-07 11:24:04,15.08839106,0.0001676,53.2147,98.5134,87.3829,272.7355,9.3181e-05,1.195e-05,0.0,0 STARLINK-3564,1 52302U 22041AT  23280.47505313  .00001195  00000-0  93181-4 0  9996,2 52302  53.2147  98.5134 0001676  87.3829 272.7355 15.08839106 81150,6917.883,95.438,540.908,538.589,0.0
52302.0,STARLINK-3564,PAYLOAD,2023-10-07 19:21:00,15.08845873,0.0001339,53.2155,97.0281,87.1886,272.9259,0.00025241,3.732e-05,0.0,0 STARLINK-3564,1 52302U 22041AT  23280.80625027  .00003732  00000-0  25241-3 0  9998,2 52302  53.2155  97.0281 0001339  87.1886 272.9259 15.08845873 81202,6917.862,95.437,540.654,538.801,0.0
52302.0,STARLINK-3564,PAYLOAD,2023-10-07 22:31:46,15.08851037,0.0001335,53.2151,96.4326,89.2831,270.8314,0.00034872,5.268e-05,0.0,0 STARLINK-3564,1 52302U 22041AT  23280.93872800  .00005268  00000-0  34872-3 0  9991,2 52302  53.2151  96.4326 0001335  89.2831 270.8314 15.08851037 82434,6917.847,95.437,540.635,538.788,0.0
52302.0,STARLINK-3564,PAYLOAD,2023-10-08 04:53:18,15.08843695,0.0001393,53.2156,95.2437,87.5421,272.573,0.00018286,2.624e-05,0.0,0 STARLINK-3564,1 52302U 22041AT  23281.20369098  .00002624  00000-0  18286-3 0  9996,2 52302  53.2156  95.2437 0001393  87.5421 272.5730 15.08843695 82475,6917.869,95.437,540.698,538.77,0.0
52302.0,STARLINK-3564,PAYLOAD,2023-10-08 11:14:51,15.08839324,0.0001488,53.2153,94.0545,85.6157,274.5005,0.00012974,1.777e-05,0.0,0 STARLINK-3564,1 52302U 22041AT  23281.46865395  .00001777  00000-0  12974-3 0  9991,2 52302  53.2153  94.0545 0001488  85.6157 274.5005 15.08839324 81301,6917.882,95.438,540.777,538.718,0.0
52302.0,STARLINK-3564,PAYLOAD,2023-10-08 20:47:10,15.08848544,0.000155,53.2154,92.2704,84.3041,275.8127,0.00030274,4.535e-05,0.0,0 STARLINK-3564,1 52302U 22041AT  23281.86609102  .00004535  00000-0  30274-3 0  9995,2 52302  53.2154  92.2704 0001550  84.3041 275.8127 15.08848544 81366,6917.854,95.437,540.792,538.647,0.0
52302.0,STARLINK-3564,PAYLOAD,2023-10-09 04:44:05,15.08843935,0.0001502,53.2156,90.7835,88.769,271.3474,0.00025947,3.844e-05,0.0,0 STARLINK-3564,1 52302U 22041AT  23282.19729158  .00003844  00000-0  25947-3 0  9999,2 52302  53.2156  90.7835 0001502  88.7690 271.3474 15.08843935 82626,6917.868,95.437,540.772,538.694,0.0
52302.0,STARLINK-3564,PAYLOAD,2023-10-09 11:05:38,15.08844342,0.0001636,53.2156,89.5946,88.1885,271.9294,0.00018353,2.634e-05,0.0,0 STARLINK-3564,1 52302U 22041AT  23282.46225187  .00002634  00000-0  18353-3 0  9991,2 52302  53.2156  89.5946 0001636  88.1885 271.9294 15.08844342 81452,6917.867,95.437,540.864,538.6,0.0
52302.0,STARLINK-3564,PAYLOAD,2023-10-09 17:27:10,15.08847012,0.0001546,53.2155,88.404,88.1316,271.9853,0.00024647,3.637e-05,0.0,0 STARLINK-3564,1 52302U 22041AT  23282.72721049  .00003637  00000-0  24647-3 0  9995,2 52302  53.2155  88.4040 0001546  88.1316 271.9853 15.08847012 81495,6917.859,95.437,540.793,538.654,0.0
52302.0,STARLINK-3564,PAYLOAD,2023-10-10 10:56:25,15.08848025,0.0001559,53.215,85.1335,85.4855,274.6315,0.0002633,3.906e-05,0.0,0 STARLINK-3564,1 52302U 22041AT  23283.45584983  .00003906  00000-0  26330-3 0  9990,2 52302  53.2150  85.1335 0001559  85.4855 274.6315 15.08848025 82818,6917.856,95.437,540.799,538.642,0.0
52302.0,STARLINK-3564,PAYLOAD,2023-10-10 14:07:11,15.08847656,0.0001588,53.2154,84.5389,85.228,274.8894,0.00022688,3.325e-05,0.0,0 STARLINK-3564,1 52302U 22041AT  23283.58832963  .00003325  00000-0  22688-3 0  9995,2 52302  53.2154  84.5389 0001588  85.2280 274.8894 15.08847656 81627,6917.857,95.437,540.821,538.623,0.0
52302.0,STARLINK-3564,PAYLOAD,2023-10-10 17:17:57,15.08851609,0.000143,53.215,83.9423,93.1425,266.9731,0.00025297,3.742e-05,0.0,0 STARLINK-3564,1 52302U 22041AT  23283.72080657  .00003742  00000-0  25297-3 0  9998,2 52302  53.2150  83.9423 0001430  93.1425 266.9731 15.08851609 81647,6917.845,95.437,540.699,538.721,0.0
52302.0,STARLINK-3564,PAYLOAD,2023-10-11 10:47:12,15.0883906,0.0001721,53.2166,80.6725,101.7375,258.381,0.00012836,1.755e-05,0.0,0 STARLINK-3564,1 52302U 22041AT  23284.44945096  .00001755  00000-0  12836-3 0  9992,2 52302  53.2166  80.6725 0001721 101.7375 258.3810 15.08839060 82962,6917.883,95.438,540.939,538.558,0.0
52302.0,STARLINK-3564,PAYLOAD,2023-10-11 13:57:59,15.08821683,0.0001583,53.2167,80.0774,107.1837,252.9329,0.00060186,9.299e-05,0.0,0 STARLINK-3564,1 52302U 22041AT  23284.58194234  .00009299  00000-0  60186-3 0  9999,2 52302  53.2167  80.0774 0001583 107.1837 252.9329 15.08821683 81775,6917.936,95.439,540.896,538.706,0.0
52302.0,STARLINK-3564,PAYLOAD,2023-10-12 13:48:45,15.08841789,0.0001405,53.2175,75.6178,88.9205,271.1948,5.6267e-05,6.08e-06,0.0,0 STARLINK-3564,1 52302U 22041AT  23285.57553139  .00000608  00000-0  56267-4 0  9993,2 52302  53.2175  75.6178 0001405  88.9205 271.1948 15.08841789 81926,6917.875,95.437,540.712,538.768,0.0
52302.0,STARLINK-3564,PAYLOAD,2023-10-12 16:59:32,15.08843759,0.0001395,53.2178,75.0236,87.1085,273.0067,8.6249e-05,1.085e-05,0.0,0 STARLINK-3564,1 52302U 22041AT  23285.70800950  .00001085  00000-0  86249-4 0  9997,2 52302  53.2178  75.0236 0001395  87.1085 273.0067 15.08843759 83152,6917.869,95.437,540.699,538.769,0.0
52302.0,STARLINK-3564,PAYLOAD,2023-10-13 12:04:10,15.08831657,0.0001344,53.2174,71.4544,88.2485,271.8661,7.2353e-06,-1.73e-06,0.0,0 STARLINK-3564,1 52302U 22041AT  23286.50290049 -.00000173  00000-0  72353-5 0  9998,2 52302  53.2174  71.4544 0001344  88.2485 271.8661 15.08831657 83273,6917.906,95.438,540.701,538.841,0.0
52302.0,STARLINK-3564,PAYLOAD,2023-10-13 13:39:33,15.08833284,0.0001286,53.2177,71.1575,83.2943,276.8196,4.1808e-05,3.77e-06,0.0,0 STARLINK-3564,1 52302U 22041AT  23286.56913909  .00000377  00000-0  41808-4 0  9996,2 52302  53.2177  71.1575 0001286  83.2943 276.8196 15.08833284 82079,6917.901,95.438,540.656,538.876,0.0
52302.0,STARLINK-3564,PAYLOAD,2023-10-13 16:50:19,15.08842933,0.0001183,53.2177,70.562,85.1785,274.9342,0.00010325,1.356e-05,0.0,0 STARLINK-3564,1 52302U 22041AT  23286.70161154  .00001356  00000-0  10325-3 0  9996,2 52302  53.2177  70.5620 0001183  85.1785 274.9342 15.08842933 83304,6917.871,95.437,540.555,538.918,0.0
52302.0,STARLINK-3564,PAYLOAD,2023-10-14 13:30:20,15.0883434,0.0001299,53.2168,66.6963,89.8753,270.2388,-4.6413e-05,-1.026e-05,0.0,0 STARLINK-3564,1 52302U 22041AT  23287.56273607 -.00001026  00000-0 -46413-4 0  9992,2 52302  53.2168  66.6963 0001299  89.8753 270.2388 15.08834340 82226,6917.898,95.438,540.661,538.864,0.0
52302.0,STARLINK-3564,PAYLOAD,2023-10-14 16:41:06,15.08840418,0.0001339,53.217,66.1041,85.8064,274.3081,8.4769e-05,1.061e-05,0.0,0 STARLINK-3564,1 52302U 22041AT  23287.69521570  .00001061  00000-0  84769-4 0  9994,2 52302  53.2170  66.1041 0001339  85.8064 274.3081 15.08840418 83451,6917.879,95.438,540.67,538.818,0.0
52302.0,STARLINK-3564,PAYLOAD,2023-10-15 13:21:08,15.08831838,0.0002006,53.2174,62.2385,91.8848,268.2374,-3.8487e-05,-9.01e-06,0.0,0 STARLINK-3564,1 52302U 22041AT  23288.55634920 -.00000901  00000-0 -38487-4 0  9994,2 52302  53.2174  62.2385 0002006  91.8848 268.2374 15.08831838 82375,6917.905,95.438,541.158,538.383,0.0
52302.0,STARLINK-3564,PAYLOAD,2023-10-15 16:31:54,15.08836445,0.0001307,53.218,61.641,85.6118,274.5024,4.0656e-05,3.59e-06,0.0,0 STARLINK-3564,1 52302U 22041AT  23288.68882340  .00000359  00000-0  40656-4 0  9995,2 52302  53.2180  61.6410 0001307  85.6118 274.5024 15.08836445 83606,6917.891,95.438,540.66,538.852,0.0
52302.0,STARLINK-3564,PAYLOAD,2023-10-16 14:47:17,15.08845754,0.0001464,53.2178,57.4788,84.2392,275.8767,8.8429e-05,1.12e-05,0.0,0 STARLINK-3564,1 52302U 22041AT  23289.61617906  .00001120  00000-0  88429-4 0  9990,2 52302  53.2178  57.4788 0001464  84.2392 275.8767 15.08845754 82539,6917.863,95.437,540.741,538.715,0.0
52302.0,STARLINK-3564,PAYLOAD,2023-10-16 16:22:40,15.08853228,0.0001495,53.2179,57.1805,78.2132,281.9028,0.00011948,1.615e-05,0.0,0 STARLINK-3564,1 52302U 22041AT  23289.68241279  .00001615  00000-0  11948-3 0  9993,2 52302  53.2179  57.1805 0001495  78.2132 281.9028 15.08853228 83754,6917.84,95.437,540.739,538.671,0.0
52302.0,STARLINK-3564,PAYLOAD,2023-10-18 01:45:46,15.08843882,0.0001348,53.2194,50.9368,93.1709,266.9438,0.00011461,1.537e-05,0.0,0 STARLINK-3564,1 52302U 22041AT  23291.07345861  .00001537  00000-0  11461-3 0  9994,2 52302  53.2194  50.9368 0001348  93.1709 266.9438 15.08843882 82751,6917.869,95.437,540.666,538.801,0.0
52302.0,STARLINK-3564,PAYLOAD,2023-10-18 11:18:06,15.08838579,0.0001486,53.2199,49.1547,89.0297,271.0865,1.0714e-05,-1.17e-06,0.0,0 STARLINK-3564,1 52302U 22041AT  23291.47090496 -.00000117  00000-0  10714-4 0  9994,2 52302  53.2199  49.1547 0001486  89.0297 271.0865 15.08838579 84024,6917.885,95.438,540.778,538.722,0.0
